NORAD_CAT_ID,OBJECT_NAME,OBJECT_TYPE,EPOCH,MEAN_MOTION,ECCENTRICITY,INCLINATION,RA_OF_ASC_NODE,ARG_OF_PERICENTER,MEAN_ANOMALY,BSTAR,MEAN_MOTION_DOT,MEAN_MOTION_DDOT,TLE_LINE0,TLE_LINE1,TLE_LINE2,SEMIMAJOR_AXIS,PERIOD,APOGEE,PERIGEE,DECAYED
55629.0,STARLINK-5497,PAYLOAD,2023-12-16 16:09:19,14.98333115,0.0002918,70.0002,96.9982,263.6871,96.3955,0.00013437,1.511e-05,0.0,0 STARLINK-5497,1 55629U 23021B   23350.67313772  .00001511  00000-0  13437-3 0  9993,2 55629  70.0002  96.9982 0002918 263.6871  96.3955 14.98333115 46368,6950.183,96.107,574.076,570.02,0.0
55629.0,STARLINK-5497,PAYLOAD,2023-12-17 11:22:56,14.98329047,0.0002725,70.0009,94.9786,258.0843,102.001,5.1137e-05,5.17e-06,0.0,0 STARLINK-5497,1 55629U 23021B   23351.47426204  .00000517  00000-0  51137-4 0  9992,2 55629  70.0009  94.9786 0002725 258.0843 102.0010 14.98329047 46184,6950.196,96.107,573.955,570.167,0.0
55629.0,STARLINK-5497,PAYLOAD,2023-12-17 14:35:12,14.98325318,0.0002671,70.0012,94.6419,256.5059,103.5802,2.8517e-05,2.47e-06,0.0,0 STARLINK-5497,1 55629U 23021B   23351.60778581  .00000247  00000-0  28517-4 0  9991,2 55629  70.0012  94.6419 0002671 256.5059 103.5802 14.98325318 46508,6950.207,96.107,573.929,570.216,0.0
55629.0,STARLINK-5497,PAYLOAD,2023-12-17 16:11:19,14.98345671,0.0002601,70.0013,94.4747,266.2381,93.8481,0.00024459,2.828e-05,0.0,0 STARLINK-5497,1 55629U 23021B   23351.67452967  .00002828  00000-0  24459-3 0  9992,2 55629  70.0013  94.4747 0002601 266.2381  93.8481 14.98345671 46216,6950.144,96.106,573.817,570.202,0.0
55629.0,STARLINK-5497,PAYLOAD,2023-12-18 11:24:56,14.98341099,0.0002654,70.0011,92.454,255.7619,104.3245,0.00012961,1.454e-05,0.0,0 STARLINK-5497,1 55629U 23021B   23352.47565056  .00001454  00000-0  12961-3 0  9994,2 55629  70.0011  92.4540 0002654 255.7619 104.3245 14.98341099 46337,6950.159,96.106,573.868,570.179,0.0
55629.0,STARLINK-5497,PAYLOAD,2023-12-18 14:37:12,14.9833966,0.0002576,70.0013,92.1172,252.0955,107.9924,0.00012171,1.36e-05,0.0,0 STARLINK-5497,1 55629U 23021B   23352.60917032  .00001360  00000-0  12171-3 0  9993,2 55629  70.0013  92.1172 0002576 252.0955 107.9924 14.98339660 46652,6950.163,96.106,573.818,570.238,0.0
55629.0,STARLINK-5497,PAYLOAD,2023-12-18 16:13:20,14.98342987,0.0002872,70.0002,91.947,260.9204,99.163,0.00012615,1.413e-05,0.0,0 STARLINK-5497,1 55629U 23021B   23352.67592770  .00001413  00000-0  12615-3 0  9990,2 55629  70.0002  91.9470 0002872 260.9204  99.1630 14.98342987 46665,6950.153,96.106,574.014,570.022,0.0
55629.0,STARLINK-5497,PAYLOAD,2023-12-19 11:26:58,14.98322888,0.000288,70.0005,89.9287,258.5951,101.4885,-3.3385e-05,-4.91e-06,0.0,0 STARLINK-5497,1 55629U 23021B   23353.47706427 -.00000491  00000-0 -33385-4 0  9990,2 55629  70.0005  89.9287 0002880 258.5951 101.4885 14.98322888 46489,6950.215,96.107,574.082,570.078,0.0
55629.0,STARLINK-5497,PAYLOAD,2023-12-19 14:39:14,14.98325209,0.0003138,69.9996,89.5907,265.8128,94.2673,-2.2543e-05,-3.62e-06,0.0,0 STARLINK-5497,1 55629U 23021B   23353.61058309 -.00000362  00000-0 -22543-4 0  9996,2 55629  69.9996  89.5907 0003138 265.8128  94.2673 14.98325209 46804,6950.208,96.107,574.254,569.892,0.0
55629.0,STARLINK-5497,PAYLOAD,2023-12-20 11:28:59,14.98327753,0.0002727,70.0012,87.4042,259.1869,100.8983,-4.1224e-05,-5.85e-06,0.0,0 STARLINK-5497,1 55629U 23021B   23354.47846385 -.00000585  00000-0 -41224-4 0  9994,2 55629  70.0012  87.4042 0002727 259.1869 100.8983 14.98327753 46639,6950.2,96.107,573.96,570.17,0.0
55629.0,STARLINK-5497,PAYLOAD,2023-12-20 13:05:07,14.98328419,0.0002558,70.0015,87.2361,247.7753,112.3135,-2.6132e-05,-4.05e-06,0.0,0 STARLINK-5497,1 55629U 23021B   23354.54522282 -.00000405  00000-0 -26132-4 0  9991,2 55629  70.0015  87.2361 0002558 247.7753 112.3135 14.98328419 46942,6950.198,96.107,573.841,570.285,0.0
55629.0,STARLINK-5497,PAYLOAD,2023-12-20 16:17:22,14.98337575,0.0002714,70.0004,86.8979,269.3454,90.7394,5.3234e-05,5.42e-06,0.0,0 STARLINK-5497,1 55629U 23021B   23354.67873640  .00000542  00000-0  53234-4 0  9995,2 55629  70.0004  86.8979 0002714 269.3454  90.7394 14.98337575 46660,6950.169,96.107,573.921,570.148,0.0
55629.0,STARLINK-5497,PAYLOAD,2023-12-21 09:54:51,14.98328078,0.0002687,70.0008,85.0475,256.7113,103.3746,0.00021694,2.496e-05,0.0,0 STARLINK-5497,1 55629U 23021B   23355.41309880  .00002496  00000-0  21694-3 0  9992,2 55629  70.0008  85.0475 0002687 256.7113 103.3746 14.98328078 46779,6950.199,96.107,573.931,570.196,0.0
55629.0,STARLINK-5497,PAYLOAD,2023-12-21 14:43:15,14.98330264,0.0002578,70.001,84.5427,252.0048,108.083,0.0002373,2.74e-05,0.0,0 STARLINK-5497,1 55629U 23021B   23355.61337730  .00002740  00000-0  23730-3 0  9994,2 55629  70.0010  84.5427 0002578 252.0048 108.0830 14.98330264 47102,6950.192,96.107,573.849,570.265,0.0
55629.0,STARLINK-5497,PAYLOAD,2023-12-22 09:56:52,14.9833071,0.0002758,70.0013,82.5245,261.3268,98.7579,9.8788e-05,1.086e-05,0.0,0 STARLINK-5497,1 55629U 23021B   23356.41450016  .00001086  00000-0  98788-4 0  9994,2 55629  70.0013  82.5245 0002758 261.3268  98.7579 14.98330710 46928,6950.191,96.107,573.973,570.139,0.0
55629.0,STARLINK-5497,PAYLOAD,2023-12-22 13:09:08,14.98333501,0.0002758,70.0003,82.1854,260.0661,100.0187,0.00012339,1.38e-05,0.0,0 STARLINK-5497,1 55629U 23021B   23356.54801761  .00001380  00000-0  12339-3 0  9999,2 55629  70.0003  82.1854 0002758 260.0661 100.0187 14.98333501 47241,6950.182,96.107,573.964,570.13,0.0
55629.0,STARLINK-5497,PAYLOAD,2023-12-22 16:21:24,14.98332315,0.000242,70.0012,81.8496,248.8252,111.2649,0.00012543,1.404e-05,0.0,0 STARLINK-5497,1 55629U 23021B   23356.68153806  .00001404  00000-0  12543-3 0  9998,2 55629  70.0012  81.8496 0002420 248.8252 111.2649 14.98332315 47266,6950.186,96.107,573.733,570.369,0.0
55629.0,STARLINK-5497,PAYLOAD,2023-12-23 11:35:01,14.98330484,0.000255,70.001,79.8297,258.2757,101.8116,-1.5082e-05,-2.73e-06,0.0,0 STARLINK-5497,1 55629U 23021B   23357.48266046 -.00000273  00000-0 -15082-4 0  9995,2 55629  70.0010  79.8297 0002550 258.2757 101.8116 14.98330484 47088,6950.191,96.107,573.829,570.284,0.0
55629.0,STARLINK-5497,PAYLOAD,2023-12-23 14:47:17,14.9833393,0.0002563,70.0009,79.4929,259.5547,100.5324,6.9757e-06,-1e-07,0.0,0 STARLINK-5497,1 55629U 23021B   23357.61617747 -.00000010  00000-0  69757-5 0  9995,2 55629  70.0009  79.4929 0002563 259.5547 100.5324 14.98333930 47401,6950.181,96.107,573.827,570.264,0.0
55629.0,STARLINK-5497,PAYLOAD,2023-12-24 11:37:02,14.98332766,0.0002559,70.0011,77.3044,256.8705,103.2169,0.00010206,1.125e-05,0.0,0 STARLINK-5497,1 55629U 23021B   23358.48405390  .00001125  00000-0  10206-3 0  9990,2 55629  70.0011  77.3044 0002559 256.8705 103.2169 14.98332766 47234,6950.184,96.107,573.828,570.271,0.0
55629.0,STARLINK-5497,PAYLOAD,2023-12-24 14:49:18,14.98334366,0.0002545,70.0012,76.9679,257.1787,102.9088,0.00010433,1.152e-05,0.0,0 STARLINK-5497,1 55629U 23021B   23358.61757245  .00001152  00000-0  10433-3 0  9996,2 55629  70.0012  76.9679 0002545 257.1787 102.9088 14.98334366 47552,6950.179,96.107,573.813,570.276,0.0
55629.0,STARLINK-5497,PAYLOAD,2023-12-25 11:39:03,14.98326274,0.0002477,70.002,74.781,244.2586,115.8317,7.332e-05,7.82e-06,0.0,0 STARLINK-5497,1 55629U 23021B   23359.48545719  .00000782  00000-0  73320-4 0  9996,2 55629  70.0020  74.7810 0002477 244.2586 115.8317 14.98326274 47380,6950.204,96.107,573.791,570.348,0.0
55629.0,STARLINK-5497,PAYLOAD,2023-12-25 13:15:11,14.98325189,0.0002476,70.0019,74.6127,245.8261,114.264,5.6682e-05,5.83e-06,0.0,0 STARLINK-5497,1 55629U 23021B   23359.55221836  .00000583  00000-0  56682-4 0  9996,2 55629  70.0019  74.6127 0002476 245.8261 114.2640 14.98325189 47694,6950.208,96.107,573.794,570.352,0.0
55629.0,STARLINK-5497,PAYLOAD,2023-12-25 14:51:19,14.98329749,0.0002787,70.0005,74.4421,261.9246,98.1597,5.7908e-05,5.98e-06,0.0,0 STARLINK-5497,1 55629U 23021B   23359.61897599  .00000598  00000-0  57908-4 0  9996,2 55629  70.0005  74.4421 0002787 261.9246  98.1597 14.98329749 47700,6950.194,96.107,573.996,570.122,0.0
55629.0,STARLINK-5497,PAYLOAD,2023-12-26 11:41:04,14.98326664,0.0002486,70.0024,72.2573,236.7728,123.3193,-9.6223e-06,-2.08e-06,0.0,0 STARLINK-5497,1 55629U 23021B   23360.48686034 -.00000208  00000-0 -96223-5 0  9997,2 55629  70.0024  72.2573 0002486 236.7728 123.3193 14.98326664 47533,6950.203,96.107,573.796,570.34,0.0
55629.0,STARLINK-5497,PAYLOAD,2023-12-26 13:17:12,14.98329998,0.0002465,70.002,72.0884,247.5805,112.5093,1.791e-05,1.21e-06,0.0,0 STARLINK-5497,1 55629U 23021B   23360.55361763  .00000121  00000-0  17910-4 0  9991,2 55629  70.0020  72.0884 0002465 247.5805 112.5093 14.98329998 47841,6950.193,96.107,573.771,570.345,0.0
55629.0,STARLINK-5497,PAYLOAD,2023-12-26 14:53:20,14.98329926,0.0002693,70.0011,71.9189,255.2047,104.8814,1.1506e-06,-7.9e-07,0.0,0 STARLINK-5497,1 55629U 23021B   23360.62037744 -.00000079  00000-0  11506-5 0  9997,2 55629  70.0011  71.9189 0002693 255.2047 104.8814 14.98329926 47851,6950.193,96.107,573.93,570.186,0.0
55629.0,STARLINK-5497,PAYLOAD,2023-12-27 11:43:05,14.98330595,0.0002847,70.0007,69.73,255.65,104.4343,7.9369e-05,8.54e-06,0.0,0 STARLINK-5497,1 55629U 23021B   23361.48825469  .00000854  00000-0  79369-4 0  9991,2 55629  70.0007  69.7300 0002847 255.6500 104.4343 14.98330595 47683,6950.191,96.107,574.035,570.077,0.0
55629.0,STARLINK-5497,PAYLOAD,2023-12-27 13:19:13,14.98332529,0.0002854,70.0009,69.5621,259.0121,101.0717,7.4939e-05,8.01e-06,0.0,0 STARLINK-5497,1 55629U 23021B   23361.55501387  .00000801  00000-0  74939-4 0  9999,2 55629  70.0009  69.5621 0002854 259.0121 101.0717 14.98332529 47995,6950.185,96.107,574.034,570.066,0.0
55629.0,STARLINK-5497,PAYLOAD,2023-12-27 14:55:21,14.98332431,0.0002833,70.0007,69.3937,255.4428,104.6417,8.9218e-05,9.72e-06,0.0,0 STARLINK-5497,1 55629U 23021B   23361.62177340  .00000972  00000-0  89218-4 0  9990,2 55629  70.0007  69.3937 0002833 255.4428 104.6417 14.98332431 48009,6950.185,96.107,574.019,570.081,0.0
